{"type": "FeatureCollection", "features": [ {"type": "Feature", "properties": {"norad_id": 41836, "name": "HIMAWARI-9", "group": "weather", "lat": -0.0028676152418825496, "lon": -147.75009178824038, "alt_km": 35782.74890580236, "timestamp": "2025-12-08T23:34:03.612463+00:00", "meta": {"OBJECT_NAME": "HIMAWARI-9", "OBJECT_ID": "2016-064A", "EPOCH": "2025-12-08T14:16:25.895424", "MEAN_MOTION": 1.00271357, "ECCENTRICITY": 0.00012693, "INCLINATION": 0.0197, "RA_OF_ASC_NODE": 65.4318, "ARG_OF_PERICENTER": 196.2475, "MEAN_ANOMALY": 170.7975, "EPHEMERIS_TYPE": 0, "CLASSIFICATION_TYPE": "U", "NORAD_CAT_ID": 41836, "ELEMENT_SET_NO": 999, "REV_AT_EPOCH": 3329, "BSTAR": 0, "MEAN_MOTION_DOT": -2.72e-06, "MEAN_MOTION_DDOT": 0}, "tle": {"line1": "1 41836U 16064A   25342.59474416 -.00000272  00000+0  00000+0 0  9995", "line2": "2 41836   0.0197  65.4318 0001269 196.2475 170.7975  1.00271357 33299"}}, "geometry": {"type": "Point", "coordinates": [-147.75009178824038, -0.0028676152418825496]}}, {"type": "Feature", "properties": {"norad_id": 41866, "name": "GOES 16", "group": "weather", "lat": -0.052716871595693805, "lon": -33.143775008825145, "alt_km": 35780.46276525829, "timestamp": "2025-12-08T23:34:03.612489+00:00", "meta": {"OBJECT_NAME": "GOES 16", "OBJECT_ID": "2016-071A", "EPOCH": "2025-12-08T12:19:18.259392", "MEAN_MOTION": 1.00270836, "ECCENTRICITY": 0.0003435, "INCLINATION": 0.0679, "RA_OF_ASC_NODE": 102.9899, "ARG_OF_PERICENTER": 157.7577, "MEAN_ANOMALY": 256.9271, "EPHEMERIS_TYPE": 0, "CLASSIFICATION_TYPE": "U", "NORAD_CAT_ID": 41866, "ELEMENT_SET_NO": 999, "REV_AT_EPOCH": 3319, "BSTAR": 0, "MEAN_MOTION_DOT": -8.9e-07, "MEAN_MOTION_DDOT": 0}, "tle": {"line1": "1 41866U 16071A   25342.51340578 -.00000089  00000+0  00000+0 0  9995", "line2": "2 41866   0.0679 102.9899 0003435 157.7577 256.9271  1.00270836 33196"}}, "geometry": {"type": "Point", "coordinates": [-33.143775008825145, -0.052716871595693805]}}, {"type": "Feature", "properties": {"norad_id": 41882, "name": "FENGYUN 4A", "group": "weather", "lat": 1.6841563926495493, "lon": -164.68614510821055, "alt_km": 35766.8726738643, "timestamp": "2025-12-08T23:34:03.612503+00:00", "meta": {"OBJECT_NAME": "FENGYUN 4A", "OBJECT_ID": "2016-077A", "EPOCH": "2025-12-08T14:29:38.895360", "MEAN_MOTION": 1.00275489, "ECCENTRICITY": 0.00049426, "INCLINATION": 1.8387, "RA_OF_ASC_NODE": 82.432, "ARG_OF_PERICENTER": 142.9861, "MEAN_ANOMALY": 193.4343, "EPHEMERIS_TYPE": 0, "CLASSIFICATION_TYPE": "U", "NORAD_CAT_ID": 41882, "ELEMENT_SET_NO": 999, "REV_AT_EPOCH": 3301, "BSTAR": 0, "MEAN_MOTION_DOT": -3.55e-06, "MEAN_MOTION_DDOT": 0}, "tle": {"line1": "1 41882U 16077A   25342.60392240 -.00000355  00000+0  00000+0 0  9998", "line2": "2 41882   1.8387  82.4320 0004942 142.9861 193.4343  1.00275489 33011"}}, "geometry": {"type": "Point", "coordinates": [-164.68614510821055, 1.6841563926495493]}}, {"type": "Feature", "properties": {"norad_id": 41884, "name": "CYGFM05", "group": "weather", "lat": -34.90957445682813, "lon": -15.569474625071026, "alt_km": 430.0522675585953, "timestamp": "2025-12-08T23:34:03.612515+00:00", "meta": {"OBJECT_NAME": "CYGFM05", "OBJECT_ID": "2016-078A", "EPOCH": "2025-12-08T14:39:21.010176", "MEAN_MOTION": 15.47407611, "ECCENTRICITY": 0.0009636, "INCLINATION": 34.9599, "RA_OF_ASC_NODE": 74.0987, "ARG_OF_PERICENTER": 144.4766, "MEAN_ANOMALY": 215.6599, "EPHEMERIS_TYPE": 0, "CLASSIFICATION_TYPE": "U", "NORAD_CAT_ID": 41884, "ELEMENT_SET_NO": 999, "REV_AT_EPOCH": 49912, "BSTAR": 0.00048584417, "MEAN_MOTION_DOT": 0.0002572, "MEAN_MOTION_DDOT": 0}, "tle": {"line1": "1 41884U 16078A   25342.61065984  .00025720  00000+0  48584-3 0  9999", "line2": "2 41884  34.9599  74.0987 0009636 144.4766 215.6599 15.47407611499125"}}, "geometry": {"type": "Point", "coordinates": [-15.569474625071026, -34.90957445682813]}}, {"type": "Feature", "properties": {"norad_id": 41885, "name": "CYGFM04", "group": "weather", "lat": 31.342918035450285, "lon": 165.80648797455413, "alt_km": 407.6808624456071, "timestamp": "2025-12-08T23:34:03.612527+00:00", "meta": {"OBJECT_NAME": "CYGFM04", "OBJECT_ID": "2016-078B", "EPOCH": "2025-12-08T13:48:05.285088", "MEAN_MOTION": 15.50097993, "ECCENTRICITY": 0.00090153, "INCLINATION": 34.9353, "RA_OF_ASC_NODE": 49.227, "ARG_OF_PERICENTER": 173.4438, "MEAN_ANOMALY": 186.6404, "EPHEMERIS_TYPE": 0, "CLASSIFICATION_TYPE": "U", "NORAD_CAT_ID": 41885, "ELEMENT_SET_NO": 999, "REV_AT_EPOCH": 49929, "BSTAR": 0.00050241883, "MEAN_MOTION_DOT": 0.00029253, "MEAN_MOTION_DDOT": 0}, "tle": {"line1": "1 41885U 16078B   25342.57506117  .00029253  00000+0  50242-3 0  9992", "line2": "2 41885  34.9353  49.2270 0009015 173.4438 186.6404 15.50097993499294"}}, "geometry": {"type": "Point", "coordinates": [165.80648797455413, 31.342918035450285]}}, {"type": "Feature", "properties": {"norad_id": 41886, "name": "CYGFM02", "group": "weather", "lat": 32.759409541720444, "lon": 157.784207578704, "alt_km": 403.50374302787986, "timestamp": "2025-12-08T23:34:03.612538+00:00", "meta": {"OBJECT_NAME": "CYGFM02", "OBJECT_ID": "2016-078C", "EPOCH": "2025-12-08T13:50:02.361408", "MEAN_MOTION": 15.51459598, "ECCENTRICITY": 0.00106831, "INCLINATION": 34.9442, "RA_OF_ASC_NODE": 47.5977, "ARG_OF_PERICENTER": 172.6655, "MEAN_ANOMALY": 187.4225, "EPHEMERIS_TYPE": 0, "CLASSIFICATION_TYPE": "U", "NORAD_CAT_ID": 41886, "ELEMENT_SET_NO": 999, "REV_AT_EPOCH": 49942, "BSTAR": 0.00050541607, "MEAN_MOTION_DOT": 0.00030924, "MEAN_MOTION_DDOT": 0}, "tle": {"line1": "1 41886U 16078C   25342.57641622  .00030924  00000+0  50542-3 0  9994", "line2": "2 41886  34.9442  47.5977 0010683 172.6655 187.4225 15.51459598499423"}}, "geometry": {"type": "Point", "coordinates": [157.784207578704, 32.759409541720444]}}, {"type": "Feature", "properties": {"norad_id": 41887, "name": "CYGFM01", "group": "weather", "lat": -26.610565044488535, "lon": 28.199639837717395, "alt_km": 430.29723255073077, "timestamp": "2025-12-08T23:34:03.612549+00:00", "meta": {"OBJECT_NAME": "CYGFM01", "OBJECT_ID": "2016-078D", "EPOCH": "2025-12-08T14:30:10.089216", "MEAN_MOTION": 15.47978786, "ECCENTRICITY": 0.00091886, "INCLINATION": 34.9428, "RA_OF_ASC_NODE": 76.5193, "ARG_OF_PERICENTER": 135.9839, "MEAN_ANOMALY": 224.1615, "EPHEMERIS_TYPE": 0, "CLASSIFICATION_TYPE": "U", "NORAD_CAT_ID": 41887, "ELEMENT_SET_NO": 999, "REV_AT_EPOCH": 49906, "BSTAR": 0.0004857316, "MEAN_MOTION_DOT": 0.00026231, "MEAN_MOTION_DDOT": 0}, "tle": {"line1": "1 41887U 16078D   25342.60428344  .00026231  00000+0  48573-3 0  9990", "line2": "2 41887  34.9428  76.5193 0009188 135.9839 224.1615 15.47978786499066"}}, "geometry": {"type": "Point", "coordinates": [28.199639837717395, -26.610565044488535]}}, {"type": "Feature", "properties": {"norad_id": 41888, "name": "CYGFM08", "group": "weather", "lat": -10.963831710944689, "lon": 40.9789658824482, "alt_km": 426.77658874867575, "timestamp": "2025-12-08T23:34:03.612560+00:00", "meta": {"OBJECT_NAME": "CYGFM08", "OBJECT_ID": "2016-078E", "EPOCH": "2025-12-08T14:22:18.112800", "MEAN_MOTION": 15.49171763, "ECCENTRICITY": 0.00110721, "INCLINATION": 34.9463, "RA_OF_ASC_NODE": 59.5943, "ARG_OF_PERICENTER": 161.1133, "MEAN_ANOMALY": 199.0002, "EPHEMERIS_TYPE": 0, "CLASSIFICATION_TYPE": "U", "NORAD_CAT_ID": 41888, "ELEMENT_SET_NO": 999, "REV_AT_EPOCH": 49929, "BSTAR": 0.00050018778, "MEAN_MOTION_DOT": 0.00028201, "MEAN_MOTION_DDOT": 0}, "tle": {"line1": "1 41888U 16078E   25342.59882075  .00028201  00000+0  50019-3 0  9991", "line2": "2 41888  34.9463  59.5943 0011072 161.1133 199.0002 15.49171763499290"}}, "geometry": {"type": "Point", "coordinates": [40.9789658824482, -10.963831710944689]}}, {"type": "Feature", "properties": {"norad_id": 41890, "name": "CYGFM07", "group": "weather", "lat": -21.34228267733402, "lon": 12.065895010350282, "alt_km": 423.3616533728609, "timestamp": "2025-12-08T23:34:03.612571+00:00", "meta": {"OBJECT_NAME": "CYGFM07", "OBJECT_ID": "2016-078G", "EPOCH": "2025-12-08T14:27:41.221152", "MEAN_MOTION": 15.49748278, "ECCENTRICITY": 0.00094512, "INCLINATION": 34.948, "RA_OF_ASC_NODE": 48.5742, "ARG_OF_PERICENTER": 178.7665, "MEAN_ANOMALY": 181.3082, "EPHEMERIS_TYPE": 0, "CLASSIFICATION_TYPE": "U", "NORAD_CAT_ID": 41890, "ELEMENT_SET_NO": 999, "REV_AT_EPOCH": 49931, "BSTAR": 0.00049170689, "MEAN_MOTION_DOT": 0.00028275, "MEAN_MOTION_DDOT": 0}, "tle": {"line1": "1 41890U 16078G   25342.60256043  .00028275  00000+0  49171-3 0  9994", "line2": "2 41890  34.9480  48.5742 0009451 178.7665 181.3082 15.49748278499315"}}, "geometry": {"type": "Point", "coordinates": [12.065895010350282, -21.34228267733402]}}, {"type": "Feature", "properties": {"norad_id": 41891, "name": "CYGFM03", "group": "weather", "lat": 13.12754401093584, "lon": -151.5083852351212, "alt_km": 408.9422050680514, "timestamp": "2025-12-08T23:34:03.612582+00:00", "meta": {"OBJECT_NAME": "CYGFM03", "OBJECT_ID": "2016-078H", "EPOCH": "2025-12-08T13:37:08.069664", "MEAN_MOTION": 15.4964836, "ECCENTRICITY": 0.00087259, "INCLINATION": 34.9436, "RA_OF_ASC_NODE": 50.72, "ARG_OF_PERICENTER": 165.7953, "MEAN_ANOMALY": 194.3016, "EPHEMERIS_TYPE": 0, "CLASSIFICATION_TYPE": "U", "NORAD_CAT_ID": 41891, "ELEMENT_SET_NO": 999, "REV_AT_EPOCH": 49928, "BSTAR": 0.00049798144, "MEAN_MOTION_DOT": 0.00028529, "MEAN_MOTION_DDOT": 0}, "tle": {"line1": "1 41891U 16078H   25342.56745451  .00028529  00000+0  49798-3 0  9993", "line2": "2 41891  34.9436  50.7200 0008725 165.7953 194.3016 15.49648360499288"}}, "geometry": {"type": "Point", "coordinates": [-151.5083852351212, 13.12754401093584]}}]}